CCSDS_OMM_VERS,COMMENT,CREATION_DATE,ORIGINATOR,OBJECT_NAME,OBJECT_ID,CENTER_NAME,REF_FRAME,TIME_SYSTEM,MEAN_ELEMENT_THEORY,EPOCH,MEAN_MOTION,ECCENTRICITY,INCLINATION,RA_OF_ASC_NODE,ARG_OF_PERICENTER,MEAN_ANOMALY,EPHEMERIS_TYPE,CLASSIFICATION_TYPE,NORAD_CAT_ID,ELEMENT_SET_NO,REV_AT_EPOCH,BSTAR,MEAN_MOTION_DOT,MEAN_MOTION_DDOT,SEMIMAJOR_AXIS,PERIOD,APOAPSIS,PERIAPSIS,OBJECT_TYPE,RCS_SIZE,COUNTRY_CODE,LAUNCH_DATE,SITE,DECAY_DATE,FILE,GP_ID,TLE_LINE0,TLE_LINE1,TLE_LINE2
"2.0","GENERATED VIA SPACE-TRACK.ORG API","2020-05-16T02:45:20","18 SPCS","IRIDIUM 136","2017-061H","EARTH","TEME","UTC","SGP4","2020-05-15T19:12:55.589760","14.34217040","0.00025320","86.4013","234.3171","102.6346","257.5133","0","U","42962","999","13615","0.00001592000000","0.00000064","0.0000000000000","7155.806","100.403","779.483","775.859","PAYLOAD","LARGE","US","2017-10-09","AFWTR","","2749793","154035573","0 IRIDIUM 136","1 42962U 17061H   20136.80064340 +.00000064 +00000-0 +15920-4 0  9996","2 42962 086.4013 234.3171 0002532 102.6346 257.5133 14.34217040136150"
"2.0","GENERATED VIA SPACE-TRACK.ORG API","2020-05-15T12:56:10","18 SPCS","IRIDIUM 136","2017-061H","EARTH","TEME","UTC","SGP4","2020-05-15T09:10:07.572576","14.34216986","0.00025190","86.4013","234.4919","102.6215","257.5262","0","U","42962","999","13609","0.00001579500000","0.00000064","0.0000000000000","7155.806","100.403","779.474","775.869","PAYLOAD","LARGE","US","2017-10-09","AFWTR","","2749292","153986214","0 IRIDIUM 136","1 42962U 17061H   20136.38203209  .00000064  00000-0  15795-4 0  9998","2 42962  86.4013 234.4919 0002519 102.6215 257.5262 14.34216986136095"
"2.0","GENERATED VIA SPACE-TRACK.ORG API","2020-05-15T12:56:10","18 SPCS","COSMOS 1818","1987-011A","EARTH","TEME","UTC","SGP4","2020-05-15T03:52:16.379616","14.31455283","0.00125140","65.0120","356.6805","271.0491","88.9160","0","U","17369","999","79077","0.00000711370000","-0.00000081","0.0000000000000","7165.007","100.596","795.838","777.906","PAYLOAD","LARGE","CIS","1987-02-01","TTMTR","","2749264","153985501","0 COSMOS 1818","1 17369U 87011A   20136.16130069 -.00000081  00000-0  71137-5 0  9995","2 17369  65.0120 356.6805 0012514 271.0491  88.9160 14.31455283790770"
"2.0","GENERATED VIA SPACE-TRACK.ORG API","2020-05-15T01:25:25","18 SPCS","COSMOS 1818","1987-011A","EARTH","TEME","UTC","SGP4","2020-05-14T21:09:51.422688","14.31455242","0.00125140","65.0121","357.4631","270.9717","88.9934","0","U","17369","999","79045","0.00000649420000","-0.00000083","0.0000000000000","7165.007","100.596","795.838","777.906","PAYLOAD","LARGE","CIS","1987-02-01","TTMTR","","2749116","153946259","0 COSMOS 1818","1 17369U 87011A   20135.88184517 -.00000083 +00000-0 +64942-5 0  9998","2 17369 065.0121 357.4631 0012514 270.9717 088.9934 14.31455242790455"
"2.0","GENERATED VIA SPACE-TRACK.ORG API","2020-05-15T01:25:25","18 SPCS","IRIDIUM 136","2017-061H","EARTH","TEME","UTC","SGP4","2020-05-14T18:05:55.544640","14.34216932","0.00025010","86.4013","234.7540","102.8317","257.3159","0","U","42962","999","13600","0.00001773800000","0.00000069","0.0000000000000","7155.806","100.403","779.461","775.882","PAYLOAD","LARGE","US","2017-10-09","AFWTR","","2749116","153959801","0 IRIDIUM 136","1 42962U 17061H   20135.75411510 +.00000069 +00000-0 +17738-4 0  9998","2 42962 086.4013 234.7540 0002501 102.8317 257.3159 14.34216932136009"
"2.0","GENERATED VIA SPACE-TRACK.ORG API","2020-05-14T16:49:08","18 SPCS","COSMOS 1818","1987-011A","EARTH","TEME","UTC","SGP4","2020-05-14T04:23:49.026048","14.31455224","0.00125130","65.0122","359.4194","270.9371","89.0279","0","U","17369","999","79035","0.00000838640000","-0.00000078","0.0000000000000","7165.007","100.596","795.838","777.907","PAYLOAD","LARGE","CIS","1987-02-01","TTMTR","","2749106","153926305","0 COSMOS 1818","1 17369U 87011A   20135.18320632 -.00000078 +00000-0 +83864-5 0  9999","2 17369 065.0122 359.4194 0012513 270.9371 089.0279 14.31455224790350"
"2.0","GENERATED VIA SPACE-TRACK.ORG API","2020-05-14T03:08:46","18 SPCS","COSMOS 1818","1987-011A","EARTH","TEME","UTC","SGP4","2020-05-13T20:00:47.826432","14.31455184","0.00125150","65.0123","0.3976","270.8636","89.1014","0","U","17369","999","79030","0.00000668990000","-0.00000082","0.0000000000000","7165.007","100.596","795.839","777.905","PAYLOAD","LARGE","CIS","1987-02-01","TTMTR","","2748830","153899446","0 COSMOS 1818","1 17369U 87011A   20134.83388688 -.00000082 +00000-0 +66899-5 0  9999","2 17369 065.0123 000.3976 0012515 270.8636 089.1014 14.31455184790304"
"2.0","GENERATED VIA SPACE-TRACK.ORG API","2020-05-14T03:08:46","18 SPCS","IRIDIUM 136","2017-061H","EARTH","TEME","UTC","SGP4","2020-05-13T18:39:23.494464","14.34216852","0.00024810","86.4013","235.1617","103.2691","256.8782","0","U","42962","999","13586","0.00002109300000","0.00000079","0.0000000000000","7155.807","100.403","779.447","775.896","PAYLOAD","LARGE","US","2017-10-09","AFWTR","","2748830","153912988","0 IRIDIUM 136","1 42962U 17061H   20134.77735526 +.00000079 +00000-0 +21093-4 0  9995","2 42962 086.4013 235.1617 0002481 103.2691 256.8782 14.34216852135866"
"2.0","GENERATED VIA SPACE-TRACK.ORG API","2020-05-13T22:26:09","18 SPCS","IRIDIUM 136","2017-061H","EARTH","TEME","UTC","SGP4","2020-05-13T16:58:55.488288","14.34216865","0.00024830","86.4013","235.1908","103.3402","256.8071","0","U","42962","999","13585","0.00002232400000","0.00000082","0.0000000000000","7155.807","100.403","779.448","775.895","PAYLOAD","LARGE","US","2017-10-09","AFWTR","","2748732","153893268","0 IRIDIUM 136","1 42962U 17061H   20134.70758667  .00000082  00000-0  22324-4 0  9991","2 42962  86.4013 235.1908 0002483 103.3402 256.8071 14.34216865135856"
"2.0","GENERATED VIA SPACE-TRACK.ORG API","2020-05-13T18:07:31","18 SPCS","IRIDIUM 136","2017-061H","EARTH","TEME","UTC","SGP4","2020-05-13T08:36:35.465184","14.34216840","0.00024770","86.4012","235.3364","103.5480","256.5991","0","U","42962","999","13580","0.00002244400000","0.00000083","0.0000000000000","7155.807","100.403","779.444","775.899","PAYLOAD","LARGE","US","2017-10-09","AFWTR","","2748684","153889878","0 IRIDIUM 136","1 42962U 17061H   20134.35874381 +.00000083 +00000-0 +22444-4 0  9998","2 42962 086.4012 235.3364 0002477 103.5480 256.5991 14.34216840135800"
"2.0","GENERATED VIA SPACE-TRACK.ORG API","2020-05-13T14:36:09","18 SPCS","COSMOS 1818","1987-011A","EARTH","TEME","UTC","SGP4","2020-05-13T04:55:21.662976","14.31455165","0.00125160","65.0123","2.1583","270.8209","89.1441","0","U","17369","999","79049","0.00000587880000","-0.00000085","0.0000000000000","7165.007","100.596","795.840","777.905","PAYLOAD","LARGE","CIS","1987-02-01","TTMTR","","2748570","153868972","0 COSMOS 1818","1 17369U 87011A   20134.20511184 -.00000085  00000-0  58788-5 0  9990","2 17369  65.0123   2.1583 0012516 270.8209  89.1441 14.31455165790498"
"2.0","GENERATED VIA SPACE-TRACK.ORG API","2020-05-13T01:21:35","18 SPCS","COSMOS 1818","1987-011A","EARTH","TEME","UTC","SGP4","2020-05-12T20:32:20.458176","14.31455142","0.00125210","65.0124","3.1365","270.7484","89.2165","0","U","17369","999","79016","0.00000367150000","-0.00000091","0.0000000000000","7165.007","100.596","795.844","777.901","PAYLOAD","LARGE","CIS","1987-02-01","TTMTR","","2748360","153848240","0 COSMOS 1818","1 17369U 87011A   20133.85579234 -.00000091 +00000-0 +36715-5 0  9993","2 17369 065.0124 003.1365 0012521 270.7484 089.2165 14.31455142790161"
"2.0","GENERATED VIA SPACE-TRACK.ORG API","2020-05-13T01:21:35","18 SPCS","IRIDIUM 136","2017-061H","EARTH","TEME","UTC","SGP4","2020-05-12T19:12:51.438240","14.34216703","0.00024650","86.4012","235.5693","103.9106","256.2364","0","U","42962","999","13572","0.00002017600000","0.00000076","0.0000000000000","7155.807","100.403","779.436","775.908","PAYLOAD","LARGE","US","2017-10-09","AFWTR","","2748360","153861782","0 IRIDIUM 136","1 42962U 17061H   20133.80059535 +.00000076 +00000-0 +20176-4 0  9995","2 42962 086.4012 235.5693 0002465 103.9106 256.2364 14.34216703135723"
"2.0","GENERATED VIA SPACE-TRACK.ORG API","2020-05-12T14:26:09","18 SPCS","IRIDIUM 136","2017-061H","EARTH","TEME","UTC","SGP4","2020-05-12T09:10:03.408096","14.34216719","0.00024720","86.4012","235.7441","104.0977","256.0493","0","U","42962","999","13566","0.00002378200000","0.00000086","0.0000000000000","7155.807","100.403","779.441","775.903","PAYLOAD","LARGE","US","2017-10-09","AFWTR","","2748064","153816883","0 IRIDIUM 136","1 42962U 17061H   20133.38198389  .00000086  00000-0  23782-4 0  9996","2 42962  86.4012 235.7441 0002472 104.0977 256.0493 14.34216719135663"
"2.0","GENERATED VIA SPACE-TRACK.ORG API","2020-05-12T16:16:50","18 SPCS","COSMOS 1818","1987-011A","EARTH","TEME","UTC","SGP4","2020-05-12T03:46:18.051168","14.31455121","0.00125170","65.0125","5.0927","270.6640","89.3010","0","U","17369","999","79006","0.00000114020000","-0.00000097","0.0000000000000","7165.008","100.596","795.841","777.904","PAYLOAD","LARGE","CIS","1987-02-01","TTMTR","","2748192","153824532","0 COSMOS 1818","1 17369U 87011A   20133.15715337 -.00000097 +00000-0 +11402-5 0  9994","2 17369 065.0125 005.0927 0012517 270.6640 089.3010 14.31455121790061"
"2.0","GENERATED VIA SPACE-TRACK.ORG API","2020-05-12T15:06:09","18 SPCS","COSMOS 1818","1987-011A","EARTH","TEME","UTC","SGP4","2020-05-12T03:46:18.051168","14.31455121","0.00125170","65.0125","5.0927","270.6640","89.3010","0","U","17369","999","79034","0.00000114020000","-0.00000097","0.0000000000000","7165.008","100.596","795.841","777.904","PAYLOAD","LARGE","CIS","1987-02-01","TTMTR","","2748172","153819570","0 COSMOS 1818","1 17369U 87011A   20133.15715337 -.00000097  00000-0  11402-5 0  9994","2 17369  65.0125   5.0927 0012517 270.6640  89.3010 14.31455121790342"
